[{"OBJECT_NAME":"STARLINK-2370","OBJECT_ID":"2021-021BC","EPOCH":"2026-03-09T20:41:53.433600","MEAN_MOTION":15.3018099,"ECCENTRICITY":0.00015673,"INCLINATION":53.1609,"RA_OF_ASC_NODE":267.3167,"ARG_OF_PERICENTER":64.3232,"MEAN_ANOMALY":295.793,"EPHEMERIS_TYPE":0,"CLASSIFICATION_TYPE":"U","NORAD_CAT_ID":47910,"ELEMENT_SET_NO":999,"REV_AT_EPOCH":27628,"BSTAR":-9.3434971e-5,"MEAN_MOTION_DOT":-3.124e-5,"MEAN_MOTION_DDOT":0},{"OBJECT_NAME":"YAOGAN-36 02B","OBJECT_ID":"2022-133B","EPOCH":"2026-03-09T22:42:31.775904","MEAN_MOTION":15.30199518,"ECCENTRICITY":0.00056841,"INCLINATION":34.9983,"RA_OF_ASC_NODE":22.5268,"ARG_OF_PERICENTER":273.0351,"MEAN_ANOMALY":86.9715,"EPHEMERIS_TYPE":0,"CLASSIFICATION_TYPE":"U","NORAD_CAT_ID":54043,"ELEMENT_SET_NO":999,"REV_AT_EPOCH":18962,"BSTAR":0.00051218814,"MEAN_MOTION_DOT":0.00015352,"MEAN_MOTION_DDOT":0}]
